{
"type": "FeatureCollection",
"name": "20260118_avalanche_boundaries",
"crs": { "type": "name", "properties": { "name": "urn:ogc:def:crs:OGC:1.3:CRS84" } },
"features": [
{"type":"Feature","properties":{"id":0},"geometry":{"type":"MultiPolygon","coordinates":[[[[-105.878739881193795,39.649004802840629],[-105.878895180831293,39.648958632678124],[-105.879008507593795,39.64879913575313],[-105.87900011301879,39.648627046965629],[-105.878706302893789,39.648467550040628],[-105.878164852806293,39.648249291090629],[-105.877992764018785,39.648186331778128],[-105.87752686510629,39.648014242990627],[-105.877358973606292,39.648102386028128],[-105.8772750278563,39.648316447690625],[-105.87727083056879,39.648350025990631],[-105.877719940331289,39.648534706640625],[-105.878248798556285,39.648727781865624],[-105.87850063580629,39.648836911340624],[-105.878739881193795,39.649004802840629]]]]}}
]
}
