{
  "type": "FeatureCollection",
  "crs": {
    "type": "name",
    "properties": {
      "name": "urn:ogc:def:crs:EPSG::32613"
    }
  },
  "features": [
    {
      "type": "Feature",
      "properties": {
        "id": 0,
        "date": "2026-01-18",
        "event": "Jan 18 release crown"
      },
      "geometry": {
        "type": "Polygon",
        "coordinates": [
          [
            [
              424582.5767168948,
              4389128.602921811
            ],
            [
              424601.6264307074,
              4389124.689370182
            ],
            [
              424626.6659735961,
              4389107.206608152
            ],
            [
              424659.965576851,
              4389087.3137212545
            ],
            [
              424670.00334664306,
              4389082.556715208
            ],
            [
              424680.1641047844,
              4389090.377397345
            ],
            [
              424688.1686876295,
              4389098.685056013
            ],
            [
              424696.27343558206,
              4389117.24119904
            ],
            [
              424643.21760262665,
              4389142.451895518
            ],
            [
              424624.9656340556,
              4389154.277575282
            ],
            [
              424609.26188068604,
              4389168.873667625
            ],
            [
              424606.75475417456,
              4389170.2958583115
            ],
            [
              424592.6555550629,
              4389164.843247492
            ],
            [
              424584.20416686696,
              4389147.688254444
            ],
            [
              424582.5767168948,
              4389128.602921811
            ]
          ]
        ]
      }
    }
  ]
}